[{"OBJECT_NAME":"STARLINK-4261","OBJECT_ID":"2022-062AQ","EPOCH":"2026-03-09T06:16:41.616192","MEAN_MOTION":15.08834921,"ECCENTRICITY":0.0001356,"INCLINATION":53.2186,"RA_OF_ASC_NODE":26.0712,"ARG_OF_PERICENTER":90.3405,"MEAN_ANOMALY":269.7743,"EPHEMERIS_TYPE":0,"CLASSIFICATION_TYPE":"U","NORAD_CAT_ID":52868,"ELEMENT_SET_NO":999,"REV_AT_EPOCH":20586,"BSTAR":-3.9585537e-5,"MEAN_MOTION_DOT":-9.18e-6,"MEAN_MOTION_DDOT":0},{"OBJECT_NAME":"OBJECT E","OBJECT_ID":"2024-018E","EPOCH":"2026-02-28T11:49:38.272512","MEAN_MOTION":14.54274509,"ECCENTRICITY":0.03649823,"INCLINATION":58.9635,"RA_OF_ASC_NODE":229.5952,"ARG_OF_PERICENTER":296.8367,"MEAN_ANOMALY":59.5785,"EPHEMERIS_TYPE":0,"CLASSIFICATION_TYPE":"U","NORAD_CAT_ID":65789,"ELEMENT_SET_NO":999,"REV_AT_EPOCH":9314,"BSTAR":0.0004744631,"MEAN_MOTION_DOT":4.754e-5,"MEAN_MOTION_DDOT":0}]
